HIMAWARI-8              
1 40267U 14060A   24234.52769510 -.00000284  00000+0  00000+0 0  9993
2 40267   0.0501 264.3078 0000933 286.2623 110.3815  1.00268781 36091
